317P/WISE,e,11.9509,275.5198,334.9042,2.965263,0.1930231,0.57042656,334.8722,05/19.0/2020,2000,g 17.5,4.0
# From MPC102103
318P/McNaught-Hartley,e,17.8721,35.6533,313.1024,7.496387,0.0480204,0.67484694,80.1694,05/19.0/2020,2000,g  8.5,6.0
# From MPC 97499
319P/Catalina-McNaught,e,15.0955,111.3801,203.6098,3.569146,0.1461698,0.66645920,260.3943,05/19.0/2020,2000,g 15.0,4.0
# From MPC 96281
320P/McNaught,e,4.9089,295.9307,0.7671,3.094172,0.1810871,0.68571740,315.9699,05/19.0/2020,2000,g 20.5,4.0
# From MPC105243
321P/SOHO,e,20.0473,165.0443,172.7247,2.422985,0.2613232,0.98106456,0.0000,01/17.2516/2020,2000,g 20.0,4.0
# From MPC102103
322P/SOHO,e,11.4595,351.4683,56.9378,2.508481,0.2480778,0.97976556,0.0000,08/31.5016/2019,2000,g 19.0,4.0
# From MPEC 2016-Y36
323P/SOHO,e,5.3369,324.3746,353.0479,2.582412,0.2375011,0.98483166,0.0000,01/17.7563/2021,2000,g 20.0,4.0
# From MPC108598
324P/La Sagra,e,21.4229,270.6439,58.0651,3.095339,0.1809847,0.15451937,296.0064,05/19.0/2020,2000,g 13.0,4.0
# From MPC114609
325P/Yang-Gao,e,16.7008,257.5794,343.6818,3.524174,0.1489766,0.59378988,258.8486,05/19.0/2020,2000,g 14.0,4.0
# From MPC103849
326P/Hill,e,2.4707,99.8146,278.5887,4.064838,0.1202650,0.31716820,201.0495,05/19.0/2020,2000,g 13.5,4.0
# From MPC 97499
327P/Van Ness,e,36.2399,173.9694,185.0178,3.563179,0.1465371,0.56267600,237.3931,05/19.0/2020,2000,g 16.0,4.0
# From MPC109148
328P/LONEOS-Tucker,e,17.6664,341.6167,30.4859,4.196486,0.1146504,0.55146660,184.3584,05/19.0/2020,2000,g 14.5,4.0
# From MPC101101
329P/LINEAR-Catalina,e,21.6633,87.6860,343.5644,5.193529,0.0832742,0.67679122,135.8771,05/19.0/2020,2000,g 13.5,4.0
# From MPC105243
330P/Catalina,e,15.6942,293.0959,189.0170,6.633742,0.0576854,0.54892780,78.4518,05/19.0/2020,2000,g 12.0,4.0
# From MPC110497
331P/Gibbs,e,9.7403,216.7781,183.7143,3.002974,0.1893986,0.04054132,334.7198,05/19.0/2020,2000,g 12.0,4.0
# From MPEC 2016-K18
332P/Ikeya-Murakami,e,9.3811,3.7937,152.3802,3.087843,0.1816441,0.48945042,277.0833,05/19.0/2020,2000,g 18.0,4.0
# From MPEC 2016-EI8
332P-B/Ikeya-Murakami,e,9.3805,3.8028,152.3711,3.082329,0.1821317,0.48970701,359.9699,03/17.0/2016,2000,g 19.0,4.0
# From MPEC 2016-K18
332P-C/Ikeya-Murakami,e,9.3801,3.7942,152.3715,3.087809,0.1816471,0.48945581,277.0961,05/19.0/2020,2000,g 16.5,4.0
# From MPEC 2016-ED0
332P-D/Ikeya-Murakami,e,9.3761,3.7923,152.4393,3.081138,0.1822373,0.48977814,359.9486,03/17.0/2016,2000,g 19.0,4.0
# From MPEC 2016-ED0
332P-E/Ikeya-Murakami,e,9.3774,3.8228,152.2825,3.079877,0.1823493,0.48922008,359.9889,03/17.0/2016,2000,g 21.0,4.0
# From MPEC 2016-ED0
332P-F/Ikeya-Murakami,e,9.5293,3.4757,152.8203,3.163214,0.1751908,0.49918860,359.8501,03/17.0/2016,2000,g 21.0,4.0
# From MPEC 2016-ED0
332P-G/Ikeya-Murakami,e,9.2523,3.6955,154.4000,3.050519,0.1849880,0.49200362,359.9006,03/19.0/2016,2000,g 19.0,4.0
# From MPC100285
332P-H/Ikeya-Murakami,e,9.3806,3.7939,152.3722,3.087992,0.1816309,0.48949099,277.0384,05/19.0/2020,2000,g 19.0,4.0
# From MPEC 2016-ED0
332P-I/Ikeya-Murakami,e,9.3791,3.8048,152.3297,3.081767,0.1821815,0.48955490,359.9360,03/17.0/2016,2000,g 20.5,2.0
# From MPEC 2016-EI8
332P-J/Ikeya-Murakami,e,9.4296,3.6729,152.7712,3.115165,0.1792596,0.49429435,359.8613,03/17.0/2016,2000,g 20.5,2.0
# From MPC104796
333P/LINEAR,e,131.9795,115.6254,26.0580,4.219875,0.1136985,0.73631643,171.5034,05/19.0/2020,2000,g 15.0,4.0
# From MPC111774
334P/NEAT,e,20.5141,90.7531,89.7343,6.837195,0.0551299,0.35498402,59.2260,05/19.0/2020,2000,g 10.5,4.0
# From MPC100285
335P/Gibbs,e,7.2908,330.8422,162.2393,3.578962,0.1455688,0.54509287,241.2723,05/19.0/2020,2000,g 17.0,4.0
# From MPC105244
336P/McNaught,e,17.8340,298.2264,308.7104,5.029540,0.0873799,0.44577027,104.9209,05/19.0/2020,2000,g 13.5,4.0
# From MPC112394
337P/WISE,e,15.3740,106.0721,160.9735,3.287827,0.1653258,0.49694862,232.2264,05/19.0/2020,2000,g 17.0,4.0
# From MPC104796
338P/McNaught,e,25.3668,9.7868,4.4003,3.898793,0.1280291,0.41086162,163.1006,05/19.0/2020,2000,g 12.0,4.0
# From MPC101101
339P/Gibbs,e,5.7365,172.7529,27.5235,3.695222,0.1387533,0.63601833,193.6477,05/19.0/2020,2000,g 17.0,4.0
# From MPC102957
340P/Boattini,e,2.0798,291.7288,35.7763,4.251736,0.1124228,0.28051283,143.5216,05/19.0/2020,2000,g 13.0,4.0
# From MPC109148
341P/Gibbs,e,3.7943,30.0047,312.0986,4.294986,0.1107290,0.41495156,160.8045,05/19.0/2020,2000,g 12.5,4.0
# From MPC101101
342P/SOHO,e,12.0622,35.0527,66.1966,3.043512,0.1856272,0.98341090,0.0000,10/19.0011/2021,2000,g  9.0,4.0
# From MPC109148
343P/NEAT-LONEOS,e,5.5829,257.2435,137.3798,5.462925,0.0771909,0.58359690,93.1978,05/19.0/2020,2000,g 14.0,4.0
# From MPC109148
344P/Read,e,3.4901,273.1940,140.4268,4.868574,0.0917490,0.42133565,118.8701,05/19.0/2020,2000,g 13.0,4.0
# From MPC109148
345P/LINEAR,e,2.7262,154.4976,196.3439,4.040883,0.1213360,0.22042097,170.2253,05/19.0/2020,2000,g 12.0,4.0
# From MPC110086
346P/Catalina,e,22.1852,102.4691,336.0326,4.477019,0.1040449,0.50232620,123.7958,05/19.0/2020,2000,g 14.0,4.0
# From MPC108599
347P/PANSTARRS,e,11.7476,261.0484,98.2869,3.607660,0.1438353,0.38520591,193.4987,05/19.0/2020,2000,g 15.0,4.0
# From MPC104796
348P/PANSTARRS,e,17.7298,312.9386,135.2747,3.156428,0.1757561,0.30616691,248.6095,05/19.0/2020,2000,g 14.0,4.0
# From MPC112394
349P/Lemmon,e,5.4912,331.7518,256.0405,3.571554,0.1460220,0.29958272,145.5364,05/19.0/2020,2000,g 14.0,4.0
# From MPC111775
350P/McNaught,e,7.3568,65.4075,141.2156,4.099152,0.1187581,0.09063639,104.4198,05/19.0/2020,2000,g 14.0,4.0
# From MPC105244
351P/Wiegert-PANSTARRS,e,12.7910,283.4490,352.6061,4.436618,0.1054693,0.29620388,173.3272,05/19.0/2020,2000,g 12.5,4.0
# From MPC110086
352P/Skiff,e,21.0095,28.1130,309.1105,6.633808,0.0576846,0.61804278,61.2588,05/19.0/2020,2000,g 11.5,4.0
# From MPEC 2020-AA5
353P/McNaught,e,28.4245,121.5625,230.3719,4.171570,0.1156791,0.46975084,101.7725,05/19.0/2020,2000,g 14.5,4.0
# From MPC105545
354P/LINEAR,e,5.2554,320.1297,133.0763,2.290029,0.2844085,0.12565020,6.1052,05/19.0/2020,2000,g 15.5,4.0
# From MPEC 2020-AA5
355P/LINEAR-NEAT,e,11.0344,51.4456,336.2530,3.473110,0.1522742,0.50664969,144.5647,05/19.0/2020,2000,g 15.5,2.0
# From MPC109148
356P/WISE,e,9.6338,160.7889,226.0448,4.161465,0.1161007,0.35445077,102.6492,05/19.0/2020,2000,g 14.0,4.0
# From MPC114609
357P/Hill,e,6.3091,44.5889,1.4404,4.462770,0.1045436,0.43434660,75.4029,05/19.0/2020,2000,g 15.5,4.0
# From MPEC 2020-HN5
358P/PANSTARRS,e,11.0570,85.7180,299.7509,3.148993,0.1763789,0.23793678,135.5773,05/19.0/2020,2000,g 18.0,4.0
# From MPC110086
359P/LONEOS,e,10.2642,149.7610,200.1163,4.639409,0.0986302,0.32377336,98.8472,05/19.0/2020,2000,g 13.5,4.0
# From MPC108599
360P/WISE,e,24.0916,2.1974,354.1100,3.703310,0.1382990,0.49843622,138.8906,05/19.0/2020,2000,g 19.5,6.0
# From MPC114609
361P/Spacewatch,e,13.8851,203.2581,219.1294,4.941659,0.0897212,0.43772614,61.6243,05/19.0/2020,2000,g 12.0,4.0
# From MPEC 2017-V13
362P/,e,15.5605,192.5947,53.6637,3.967068,0.1247383,0.28005868,170.1348,05/19.0/2020,2000,g 12.9,2.0
# From MPC114609
363P/Lemmon,e,4.4203,157.2553,329.5676,3.462207,0.1529940,0.55881627,119.2099,05/19.0/2020,2000,g 17.5,4.0
# From MPC114609
364P/PANSTARRS,e,12.1485,46.2149,211.9732,2.878645,0.2018004,0.72254978,140.1733,05/19.0/2020,2000,g 17.0,2.0
# From MPC111775
365P/PANSTARRS,e,9.8382,87.4219,66.2244,3.180347,0.1737770,0.57488007,143.8655,05/19.0/2020,2000,g 17.0,4.0
# From MPC114610
366P/Spacewatch,e,8.8596,70.7526,153.1717,3.495519,0.1508122,0.34860208,100.7091,05/19.0/2020,2000,g 15.0,4.0
# From MPC112395
367P/Catalina,e,8.4638,58.7143,172.9237,3.505000,0.1502007,0.28065461,104.7730,05/19.0/2020,2000,g 17.5,2.0
# From MPC114610
368P/NEAT,e,15.4839,257.9727,118.7776,5.526482,0.0758632,0.62605678,46.4813,05/19.0/2020,2000,g 14.0,4.0
# From MPC114610
369P/Hill,e,10.3094,47.3086,13.2270,4.386854,0.1072690,0.55411171,62.4271,05/19.0/2020,2000,g 15.0,4.0
# From MPC114610
370P/NEAT,e,19.3983,55.1467,356.7129,6.438022,0.0603358,0.61428719,42.8177,05/19.0/2020,2000,g 13.0,4.0
# From MPC114610
371P/LINEAR-Skiff,e,17.3780,67.3280,308.4528,4.181532,0.1152659,0.47627004,68.2816,05/19.0/2020,2000,g 16.0,4.0
# From MPEC 2019-TG9
372P/McNaught,e,9.5095,325.8227,27.0954,4.501754,0.1031885,0.15245651,59.4928,05/19.0/2020,2000,g 13.5,4.0
# From MPC114610
373P/Rinner,e,13.7580,231.9523,221.1690,3.805733,0.1327537,0.39220385,53.9001,05/19.0/2020,2000,g 14.5,4.0
# From MPC114610
374P/Larson,e,10.7593,7.9180,51.5525,4.975897,0.0887967,0.46226477,43.8921,05/19.0/2020,2000,g 14.0,4.0
# From MPC114610
375P/Hill,e,17.3622,359.9512,119.4696,5.560486,0.0751683,0.65895399,38.6840,05/19.0/2020,2000,g 16.0,4.0
# From MPEC 2020-HN5
376P/LONEOS,e,1.1934,314.8379,285.3726,5.874420,0.0692240,0.51829952,16.1293,05/19.0/2020,2000,g 12.5,4.0
# From MPC115888
377P/Scotti,e,9.0218,226.0596,354.9551,6.714145,0.0566524,0.25281390,356.9889,05/19.0/2020,2000,g  9.5,4.0
# From MPEC 2019-TG9
378P/McNaught,e,19.1086,94.5163,194.1569,6.364661,0.0613820,0.46886166,350.4556,05/19.0/2020,2000,g 12.0,4.0
# From MPC115889
379P/Spacewatch,e,12.3854,183.9620,31.2645,3.528897,0.1486776,0.33889009,43.3200,05/19.0/2020,2000,g 15.0,4.0
# From MPEC 2020-HN5
380P/PANSTARRS,e,8.2477,133.0062,90.1131,4.545515,0.1017020,0.32952768,35.2918,05/19.0/2020,2000,g 12.5,4.0
# From MPEC 2019-TG9
381P/LINEAR-Spacewatch,e,28.3758,173.7892,173.1058,7.114489,0.0519384,0.68156559,12.2101,05/19.0/2020,2000,g 17.5,2.0
# From MPC115889
382P/Larson,e,7.6662,177.6556,174.3855,6.207082,0.0637342,0.29680704,315.3440,05/19.0/2020,2000,g  8.0,4.0
# From MPC118844
383P/Christensen,e,12.3219,207.8967,133.6252,3.543493,0.1477600,0.59947762,30.4064,05/19.0/2020,2000,g 18.0,4.0
# From MPEC 2020-C98
384P/Kowalski,e,7.2815,354.2277,37.6452,2.901683,0.1994019,0.61530655,43.9858,05/19.0/2020,2000,g 19.5,4.0
# From MPEC 2020-C98
385P/Hill,e,16.8262,357.0734,44.3289,4.287680,0.1110122,0.40119050,27.4448,05/19.0/2020,2000,g 13.0,4.0
# From MPEC 2020-C98
